{"type": "FeatureCollection", "features": [ {"type": "Feature", "properties": {"norad_id": 28649, "name": "IRS-P5 (CARTOSAT-1)", "group": "resource", "lat": -33.67379078560743, "lon": -170.32949621261614, "alt_km": 603.6808028340802, "timestamp": "2025-12-14T09:36:22.690966+00:00", "meta": {"OBJECT_NAME": "IRS-P5 (CARTOSAT-1)", "OBJECT_ID": "2005-017A", "EPOCH": "2025-12-13T14:55:31.067904", "MEAN_MOTION": 14.90409021, "ECCENTRICITY": 0.00011847, "INCLINATION": 97.5499, "RA_OF_ASC_NODE": 13.9961, "ARG_OF_PERICENTER": 48.4106, "MEAN_ANOMALY": 311.7214, "EPHEMERIS_TYPE": 0, "CLASSIFICATION_TYPE": "U", "NORAD_CAT_ID": 28649, "ELEMENT_SET_NO": 999, "REV_AT_EPOCH": 11617, "BSTAR": 0.00028320564, "MEAN_MOTION_DOT": 2.706e-05, "MEAN_MOTION_DDOT": 0}, "tle": {"line1": "1 28649U 05017A   25347.62188736  .00002706  00000+0  28321-3 0  9997", "line2": "2 28649  97.5499  13.9961 0001184  48.4106 311.7214 14.90409021116175"}}, "geometry": {"type": "Point", "coordinates": [-170.32949621261614, -33.67379078560743]}}, {"type": "Feature", "properties": {"norad_id": 28893, "name": "SINAH 1", "group": "resource", "lat": 48.59911188435802, "lon": 107.47746574425919, "alt_km": 674.609467740529, "timestamp": "2025-12-14T09:36:22.690976+00:00", "meta": {"OBJECT_NAME": "SINAH 1", "OBJECT_ID": "2005-043D", "EPOCH": "2025-12-13T15:20:15.996192", "MEAN_MOTION": 14.63963873, "ECCENTRICITY": 0.00153877, "INCLINATION": 98.2603, "RA_OF_ASC_NODE": 116.1986, "ARG_OF_PERICENTER": 134.3424, "MEAN_ANOMALY": 225.9042, "EPHEMERIS_TYPE": 0, "CLASSIFICATION_TYPE": "U", "NORAD_CAT_ID": 28893, "ELEMENT_SET_NO": 999, "REV_AT_EPOCH": 7337, "BSTAR": 0.00014733579, "MEAN_MOTION_DOT": 7.24e-06, "MEAN_MOTION_DDOT": 0}, "tle": {"line1": "1 28893U 05043D   25347.63907403  .00000724  00000+0  14734-3 0  9999", "line2": "2 28893  98.2603 116.1986 0015387 134.3424 225.9042 14.63963873 73371"}}, "geometry": {"type": "Point", "coordinates": [107.47746574425919, 48.59911188435802]}}, {"type": "Feature", "properties": {"norad_id": 29079, "name": "EROS B", "group": "resource", "lat": -36.6021692485259, "lon": 110.551784436222, "alt_km": 366.93538610223914, "timestamp": "2025-12-14T09:36:22.690987+00:00", "meta": {"OBJECT_NAME": "EROS B", "OBJECT_ID": "2006-014A", "EPOCH": "2025-12-13T15:23:33.953280", "MEAN_MOTION": 15.68631586, "ECCENTRICITY": 0.00024635, "INCLINATION": 97.3465, "RA_OF_ASC_NODE": 104.2574, "ARG_OF_PERICENTER": 307.18, "MEAN_ANOMALY": 52.9236, "EPHEMERIS_TYPE": 0, "CLASSIFICATION_TYPE": "U", "NORAD_CAT_ID": 29079, "ELEMENT_SET_NO": 999, "REV_AT_EPOCH": 9094, "BSTAR": 0.0014787052, "MEAN_MOTION_DOT": 0.00170804, "MEAN_MOTION_DDOT": 0}, "tle": {"line1": "1 29079U 06014A   25347.64136520  .00170804  00000+0  14787-2 0  9994", "line2": "2 29079  97.3465 104.2574 0002463 307.1800  52.9236 15.68631586 90948"}}, "geometry": {"type": "Point", "coordinates": [110.551784436222, -36.6021692485259]}}, {"type": "Feature", "properties": {"norad_id": 29228, "name": "RESURS-DK 1", "group": "resource", "lat": -69.0111502136769, "lon": -10.121333918266279, "alt_km": 531.3102054763376, "timestamp": "2025-12-14T09:36:22.690997+00:00", "meta": {"OBJECT_NAME": "RESURS-DK 1", "OBJECT_ID": "2006-021A", "EPOCH": "2025-12-13T16:34:03.544320", "MEAN_MOTION": 15.12168188, "ECCENTRICITY": 0.00071518, "INCLINATION": 69.9333, "RA_OF_ASC_NODE": 99.3818, "ARG_OF_PERICENTER": 258.4123, "MEAN_ANOMALY": 101.624, "EPHEMERIS_TYPE": 0, "CLASSIFICATION_TYPE": "U", "NORAD_CAT_ID": 29228, "ELEMENT_SET_NO": 999, "REV_AT_EPOCH": 7452, "BSTAR": 0.00021648427, "MEAN_MOTION_DOT": 3.638e-05, "MEAN_MOTION_DDOT": 0}, "tle": {"line1": "1 29228U 06021A   25347.69031880  .00003638  00000+0  21648-3 0  9991", "line2": "2 29228  69.9333  99.3818 0007151 258.4123 101.6240 15.12168188 74528"}}, "geometry": {"type": "Point", "coordinates": [-10.121333918266279, -69.0111502136769]}}, {"type": "Feature", "properties": {"norad_id": 29268, "name": "ARIRANG-2 (KOMPSAT-2)", "group": "resource", "lat": -41.46146997372915, "lon": -176.2280726238708, "alt_km": 676.0716410376654, "timestamp": "2025-12-14T09:36:22.691008+00:00", "meta": {"OBJECT_NAME": "ARIRANG-2 (KOMPSAT-2)", "OBJECT_ID": "2006-031A", "EPOCH": "2025-12-13T16:03:07.748352", "MEAN_MOTION": 14.64495961, "ECCENTRICITY": 0.00134749, "INCLINATION": 97.8264, "RA_OF_ASC_NODE": 176.0964, "ARG_OF_PERICENTER": 306.0185, "MEAN_ANOMALY": 118.2198, "EPHEMERIS_TYPE": 0, "CLASSIFICATION_TYPE": "U", "NORAD_CAT_ID": 29268, "ELEMENT_SET_NO": 999, "REV_AT_EPOCH": 3432, "BSTAR": 0.00017307601, "MEAN_MOTION_DOT": 8.73e-06, "MEAN_MOTION_DDOT": 0}, "tle": {"line1": "1 29268U 06031A   25347.66883968  .00000873  00000+0  17308-3 0  9991", "line2": "2 29268  97.8264 176.0964 0013474 306.0185 118.2198 14.64495961 34321"}}, "geometry": {"type": "Point", "coordinates": [-176.2280726238708, -41.46146997372915]}}, {"type": "Feature", "properties": {"norad_id": 29709, "name": "LAPAN-TUBSAT", "group": "resource", "lat": 18.715133248537953, "lon": -24.1836136730557, "alt_km": 605.6639966658004, "timestamp": "2025-12-14T09:36:22.691018+00:00", "meta": {"OBJECT_NAME": "LAPAN-TUBSAT", "OBJECT_ID": "2007-001A", "EPOCH": "2025-12-13T15:44:27.623328", "MEAN_MOTION": 14.85671381, "ECCENTRICITY": 0.00135622, "INCLINATION": 98.126, "RA_OF_ASC_NODE": 337.8311, "ARG_OF_PERICENTER": 71.3903, "MEAN_ANOMALY": 288.8783, "EPHEMERIS_TYPE": 0, "CLASSIFICATION_TYPE": "U", "NORAD_CAT_ID": 29709, "ELEMENT_SET_NO": 999, "REV_AT_EPOCH": 2360, "BSTAR": 0.00011362393, "MEAN_MOTION_DOT": 9.29e-06, "MEAN_MOTION_DDOT": 0}, "tle": {"line1": "1 29709U 07001A   25347.65587527  .00000929  00000+0  11362-3 0  9996", "line2": "2 29709  98.1260 337.8311 0013562  71.3903 288.8783 14.85671381 23600"}}, "geometry": {"type": "Point", "coordinates": [-24.1836136730557, 18.715133248537953]}}, {"type": "Feature", "properties": {"norad_id": 31113, "name": "HAIYANG-1B", "group": "resource", "lat": -61.26404239572204, "lon": -11.88887596775895, "alt_km": 796.608189246891, "timestamp": "2025-12-14T09:36:22.691029+00:00", "meta": {"OBJECT_NAME": "HAIYANG-1B", "OBJECT_ID": "2007-010A", "EPOCH": "2025-12-13T12:04:52.085568", "MEAN_MOTION": 14.30965527, "ECCENTRICITY": 0.00142299, "INCLINATION": 98.3315, "RA_OF_ASC_NODE": 331.7499, "ARG_OF_PERICENTER": 35.7934, "MEAN_ANOMALY": 324.4201, "EPHEMERIS_TYPE": 0, "CLASSIFICATION_TYPE": "U", "NORAD_CAT_ID": 31113, "ELEMENT_SET_NO": 999, "REV_AT_EPOCH": 97407, "BSTAR": 0.00010070388, "MEAN_MOTION_DOT": 2.23e-06, "MEAN_MOTION_DDOT": 0}, "tle": {"line1": "1 31113U 07010A   25347.50338062  .00000223  00000+0  10070-3 0  9992", "line2": "2 31113  98.3315 331.7499 0014229  35.7934 324.4201 14.30965527974070"}}, "geometry": {"type": "Point", "coordinates": [-11.88887596775895, -61.26404239572204]}}, {"type": "Feature", "properties": {"norad_id": 31598, "name": "COSMO-SKYMED 1", "group": "resource", "lat": 34.97588578071479, "lon": 168.24710170412953, "alt_km": 577.1172869660941, "timestamp": "2025-12-14T09:36:22.691039+00:00", "meta": {"OBJECT_NAME": "COSMO-SKYMED 1", "OBJECT_ID": "2007-023A", "EPOCH": "2025-12-13T15:47:17.342304", "MEAN_MOTION": 14.95773595, "ECCENTRICITY": 0.0001295, "INCLINATION": 97.8834, "RA_OF_ASC_NODE": 173.0628, "ARG_OF_PERICENTER": 90.4268, "MEAN_ANOMALY": 269.7101, "EPHEMERIS_TYPE": 0, "CLASSIFICATION_TYPE": "U", "NORAD_CAT_ID": 31598, "ELEMENT_SET_NO": 999, "REV_AT_EPOCH": 204, "BSTAR": 0.00045383365, "MEAN_MOTION_DOT": 5.003e-05, "MEAN_MOTION_DDOT": 0}, "tle": {"line1": "1 31598U 07023A   25347.65783961  .00005003  00000+0  45383-3 0  9997", "line2": "2 31598  97.8834 173.0628 0001295  90.4268 269.7101 14.95773595  2047"}}, "geometry": {"type": "Point", "coordinates": [168.24710170412953, 34.97588578071479]}}, {"type": "Feature", "properties": {"norad_id": 31698, "name": "TERRASAR-X", "group": "resource", "lat": -10.881772799836426, "lon": 172.31519103785942, "alt_km": 513.0758316252159, "timestamp": "2025-12-14T09:36:22.691049+00:00", "meta": {"OBJECT_NAME": "TERRASAR-X", "OBJECT_ID": "2007-026A", "EPOCH": "2025-12-13T12:13:05.117664", "MEAN_MOTION": 15.19151549, "ECCENTRICITY": 0.00017647, "INCLINATION": 97.4456, "RA_OF_ASC_NODE": 352.8775, "ARG_OF_PERICENTER": 89.7934, "MEAN_ANOMALY": 270.3503, "EPHEMERIS_TYPE": 0, "CLASSIFICATION_TYPE": "U", "NORAD_CAT_ID": 31698, "ELEMENT_SET_NO": 999, "REV_AT_EPOCH": 2503, "BSTAR": 0.00010409632, "MEAN_MOTION_DOT": 2.12e-05, "MEAN_MOTION_DDOT": 0}, "tle": {"line1": "1 31698U 07026A   25347.50908701  .00002120  00000+0  10410-3 0  9996", "line2": "2 31698  97.4456 352.8775 0001764  89.7934 270.3503 15.19151549 25030"}}, "geometry": {"type": "Point", "coordinates": [172.31519103785942, -10.881772799836426]}}, {"type": "Feature", "properties": {"norad_id": 32060, "name": "WORLDVIEW-1 (WV-1)", "group": "resource", "lat": -44.91574800929759, "lon": -81.57110061179793, "alt_km": 498.6672276659092, "timestamp": "2025-12-14T09:36:22.691060+00:00", "meta": {"OBJECT_NAME": "WORLDVIEW-1 (WV-1)", "OBJECT_ID": "2007-041A", "EPOCH": "2025-12-13T13:43:12.987840", "MEAN_MOTION": 15.24707792, "ECCENTRICITY": 8.102e-05, "INCLINATION": 97.383, "RA_OF_ASC_NODE": 105.0405, "ARG_OF_PERICENTER": 109.7659, "MEAN_ANOMALY": 250.3666, "EPHEMERIS_TYPE": 0, "CLASSIFICATION_TYPE": "U", "NORAD_CAT_ID": 32060, "ELEMENT_SET_NO": 999, "REV_AT_EPOCH": 1460, "BSTAR": 0.00038918492, "MEAN_MOTION_DOT": 9.56e-05, "MEAN_MOTION_DDOT": 0}, "tle": {"line1": "1 32060U 07041A   25347.57167810  .00009560  00000+0  38918-3 0  9990", "line2": "2 32060  97.3830 105.0405 0000810 109.7659 250.3666 15.24707792 14607"}}, "geometry": {"type": "Point", "coordinates": [-81.57110061179793, -44.91574800929759]}}]}